26081,GLOBALSTAR M063,2000,121.4,-1.0,-,51.99,Inactive,0,LEO,USA,Globalstar,Unknown,Unknown,Delta,1 26081U 00008A   23342.66956647 -.00000058  00000+0  35728-3 0  9999,2 26081  51.9925 137.2085 0003776 341.3706 149.8927 11.86148730 91530,11.8614873,0.0003776,LEO
26082,GLOBALSTAR M062,2000,115.81,-1.0,-,51.99,Inactive,0,LEO,USA,Globalstar,Unknown,Unknown,Delta,1 26082U 00008B   23342.86032884 -.00000101  00000+0 -17623-4 0  9995,2 26082  51.9858 291.7125 0007570   8.4253   9.4078 12.43422322427415,12.43422322,0.000757,LEO
26084,GLOBALSTAR M064,2000,121.16,-1.0,-,52.0,Inactive,0,LEO,USA,Globalstar,Unknown,Unknown,Delta,1 26084U 00008D   23342.73611645 -.00000075  00000+0  11909-3 0  9990,2 26084  52.0024 242.4264 0002527  64.9328 295.1767 11.88513193100937,11.88513193,0.0002527,LEO
31571,GLOBALSTAR M065,2007,114.11,450.0,P,51.99,Active,1,LEO,Kazakhstan,Globalstar,Commercial,Communications,Soyuz,1 31571U 07020A   23342.60923718 -.00000073  00000+0  17275-3 0  9991,2 31571  51.9879 120.2336 0010569 152.0375 338.6335 12.61960231763131,12.61960231,0.0010569,LEO
31573,GLOBALSTAR M069,2007,114.08,450.0,+,52.0,Active,1,LEO,Kazakhstan,Globalstar,Commercial,Communications,Soyuz,1 31573U 07020C   23342.56459552 -.00000104  00000+0 -76643-7 0  9992,2 31573  51.9962  76.4440 0000800 140.1937 325.2571 12.62261740764251,12.6226174,8e-05,LEO
31574,GLOBALSTAR M072,2007,114.08,450.0,+,52.01,Active,1,LEO,Kazakhstan,Globalstar,Commercial,Communications,Soyuz,1 31574U 07020D   23343.49144525 -.00000079  00000+0  14081-3 0  9991,2 31574  52.0057 169.3925 0001667  96.2399 281.0558 12.62269413762802,12.62269413,0.0001667,LEO
31576,GLOBALSTAR M071,2007,114.08,450.0,+,52.01,Active,1,LEO,Kazakhstan,Globalstar,Commercial,Communications,Soyuz,1 31576U 07020F   23342.50673194 -.00000095  00000+0  50566-4 0  9990,2 31576  52.0073  81.6365 0000572 111.7725 329.9222 12.62273794425438,12.62273794,5.72e-05,LEO
